[{"OBJECT_NAME":"STARLINK-32559","OBJECT_ID":"2024-207D","EPOCH":"2026-03-09T22:38:56.289984","MEAN_MOTION":15.27608664,"ECCENTRICITY":0.00021124,"INCLINATION":42.9974,"RA_OF_ASC_NODE":280.0749,"ARG_OF_PERICENTER":40.4173,"MEAN_ANOMALY":319.6835,"EPHEMERIS_TYPE":0,"CLASSIFICATION_TYPE":"U","NORAD_CAT_ID":61915,"ELEMENT_SET_NO":999,"REV_AT_EPOCH":7476,"BSTAR":0.00090887555,"MEAN_MOTION_DOT":0.00024855,"MEAN_MOTION_DDOT":0},{"OBJECT_NAME":"CZ-4B DEB","OBJECT_ID":"2008-053J","EPOCH":"2026-03-09T11:59:22.469568","MEAN_MOTION":15.1637526,"ECCENTRICITY":0.00601661,"INCLINATION":97.7872,"RA_OF_ASC_NODE":170.5072,"ARG_OF_PERICENTER":304.792,"MEAN_ANOMALY":54.7659,"EPHEMERIS_TYPE":0,"CLASSIFICATION_TYPE":"U","NORAD_CAT_ID":35573,"ELEMENT_SET_NO":999,"REV_AT_EPOCH":91868,"BSTAR":0.0017688276,"MEAN_MOTION_DOT":0.00036031,"MEAN_MOTION_DDOT":0}]
